[{"OBJECT_NAME":"STARLINK-34032","OBJECT_ID":"2025-093T","EPOCH":"2025-10-13T01:03:55.926720","MEAN_MOTION":15.27616754,"ECCENTRICITY":0.00013501,"INCLINATION":43.0019,"RA_OF_ASC_NODE":191.5425,"ARG_OF_PERICENTER":278.338,"MEAN_ANOMALY":81.7319,"EPHEMERIS_TYPE":0,"CLASSIFICATION_TYPE":"U","NORAD_CAT_ID":63853,"ELEMENT_SET_NO":999,"REV_AT_EPOCH":2539,"BSTAR":0.0015269653,"MEAN_MOTION_DOT":0.00042044,"MEAN_MOTION_DDOT":0},{"OBJECT_NAME":"STARLINK-34015","OBJECT_ID":"2025-093U","EPOCH":"2025-10-13T00:25:18.740928","MEAN_MOTION":15.27612243,"ECCENTRICITY":0.00019793,"INCLINATION":43.0002,"RA_OF_ASC_NODE":192.202,"ARG_OF_PERICENTER":266.7535,"MEAN_ANOMALY":93.309,"EPHEMERIS_TYPE":0,"CLASSIFICATION_TYPE":"U","NORAD_CAT_ID":63854,"ELEMENT_SET_NO":999,"REV_AT_EPOCH":2522,"BSTAR":0.0013382765,"MEAN_MOTION_DOT":0.00036785,"MEAN_MOTION_DDOT":0},{"OBJECT_NAME":"STARLINK-33969","OBJECT_ID":"2025-093V","EPOCH":"2025-10-12T18:58:26.751360","MEAN_MOTION":15.27629279,"ECCENTRICITY":2.1e-6,"INCLINATION":43.004,"RA_OF_ASC_NODE":193.0773,"ARG_OF_PERICENTER":10.3905,"MEAN_ANOMALY":349.6947,"EPHEMERIS_TYPE":0,"CLASSIFICATION_TYPE":"U","NORAD_CAT_ID":63855,"ELEMENT_SET_NO":999,"REV_AT_EPOCH":2513,"BSTAR":0.001802319,"MEAN_MOTION_DOT":0.00049744,"MEAN_MOTION_DDOT":0},{"OBJECT_NAME":"STARLINK-34002","OBJECT_ID":"2025-093W","EPOCH":"2025-10-12T19:11:23.231616","MEAN_MOTION":15.27592224,"ECCENTRICITY":8.755e-5,"INCLINATION":43.0033,"RA_OF_ASC_NODE":193.1496,"ARG_OF_PERICENTER":281.0795,"MEAN_ANOMALY":78.9958,"EPHEMERIS_TYPE":0,"CLASSIFICATION_TYPE":"U","NORAD_CAT_ID":63856,"ELEMENT_SET_NO":999,"REV_AT_EPOCH":2513,"BSTAR":0.00169852,"MEAN_MOTION_DOT":0.00046792,"MEAN_MOTION_DDOT":0},{"OBJECT_NAME":"STARLINK-33999","OBJECT_ID":"2025-093X","EPOCH":"2025-10-13T01:07:39.090144","MEAN_MOTION":15.27609936,"ECCENTRICITY":0.00017663,"INCLINATION":43.0011,"RA_OF_ASC_NODE":191.5451,"ARG_OF_PERICENTER":274.5286,"MEAN_ANOMALY":85.5364,"EPHEMERIS_TYPE":0,"CLASSIFICATION_TYPE":"U","NORAD_CAT_ID":63857,"ELEMENT_SET_NO":999,"REV_AT_EPOCH":2539,"BSTAR":0.0013201335,"MEAN_MOTION_DOT":0.00036278,"MEAN_MOTION_DDOT":0},{"OBJECT_NAME":"STARLINK-33976","OBJECT_ID":"2025-093Y","EPOCH":"2025-10-12T19:03:59.265216","MEAN_MOTION":15.27602688,"ECCENTRICITY":0.00012773,"INCLINATION":43.0001,"RA_OF_ASC_NODE":193.0918,"ARG_OF_PERICENTER":273.9411,"MEAN_ANOMALY":86.1294,"EPHEMERIS_TYPE":0,"CLASSIFICATION_TYPE":"U","NORAD_CAT_ID":63858,"ELEMENT_SET_NO":999,"REV_AT_EPOCH":2519,"BSTAR":0.0018758479,"MEAN_MOTION_DOT":0.00051756,"MEAN_MOTION_DDOT":0},{"OBJECT_NAME":"STARLINK-33821","OBJECT_ID":"2025-093Z","EPOCH":"2025-10-12T19:24:20.294208","MEAN_MOTION":15.27628783,"ECCENTRICITY":0.0002264,"INCLINATION":43.0021,"RA_OF_ASC_NODE":193.1903,"ARG_OF_PERICENTER":272.2796,"MEAN_ANOMALY":87.7796,"EPHEMERIS_TYPE":0,"CLASSIFICATION_TYPE":"U","NORAD_CAT_ID":63859,"ELEMENT_SET_NO":999,"REV_AT_EPOCH":2533,"BSTAR":0.0015548506,"MEAN_MOTION_DOT":0.00042838,"MEAN_MOTION_DDOT":0},{"OBJECT_NAME":"STARLINK-33888","OBJECT_ID":"2025-093AA","EPOCH":"2025-10-12T17:39:05.199840","MEAN_MOTION":15.27604147,"ECCENTRICITY":4.812e-5,"INCLINATION":42.9987,"RA_OF_ASC_NODE":193.5273,"ARG_OF_PERICENTER":330.2785,"MEAN_ANOMALY":29.8039,"EPHEMERIS_TYPE":0,"CLASSIFICATION_TYPE":"U","NORAD_CAT_ID":63860,"ELEMENT_SET_NO":999,"REV_AT_EPOCH":2534,"BSTAR":0.0015503656,"MEAN_MOTION_DOT":0.00042679,"MEAN_MOTION_DDOT":0},{"OBJECT_NAME":"STARLINK-33896","OBJECT_ID":"2025-093AB","EPOCH":"2025-10-11T18:14:08.559456","MEAN_MOTION":15.27613671,"ECCENTRICITY":9.586e-5,"INCLINATION":42.9991,"RA_OF_ASC_NODE":199.11,"ARG_OF_PERICENTER":332.5424,"MEAN_ANOMALY":27.5377,"EPHEMERIS_TYPE":0,"CLASSIFICATION_TYPE":"U","NORAD_CAT_ID":63861,"ELEMENT_SET_NO":999,"REV_AT_EPOCH":2497,"BSTAR":0.0014038899,"MEAN_MOTION_DOT":0.00038612,"MEAN_MOTION_DDOT":0},{"OBJECT_NAME":"STARLINK-33878","OBJECT_ID":"2025-093AC","EPOCH":"2025-10-12T03:40:55.281504","MEAN_MOTION":15.27593721,"ECCENTRICITY":0.00017181,"INCLINATION":43.0001,"RA_OF_ASC_NODE":196.8724,"ARG_OF_PERICENTER":290.8059,"MEAN_ANOMALY":69.2608,"EPHEMERIS_TYPE":0,"CLASSIFICATION_TYPE":"U","NORAD_CAT_ID":63862,"ELEMENT_SET_NO":999,"REV_AT_EPOCH":2524,"BSTAR":0.001343907,"MEAN_MOTION_DOT":0.0003692,"MEAN_MOTION_DDOT":0},{"OBJECT_NAME":"STARLINK-33954","OBJECT_ID":"2025-093AD","EPOCH":"2025-10-13T00:16:03.149184","MEAN_MOTION":15.2758421,"ECCENTRICITY":0.00017274,"INCLINATION":43.0021,"RA_OF_ASC_NODE":192.1525,"ARG_OF_PERICENTER":252.119,"MEAN_ANOMALY":107.9474,"EPHEMERIS_TYPE":0,"CLASSIFICATION_TYPE":"U","NORAD_CAT_ID":63863,"ELEMENT_SET_NO":999,"REV_AT_EPOCH":2516,"BSTAR":0.0016182845,"MEAN_MOTION_DOT":0.00044545,"MEAN_MOTION_DDOT":0},{"OBJECT_NAME":"STARLINK-33863","OBJECT_ID":"2025-094A","EPOCH":"2025-10-13T07:40:29.043840","MEAN_MOTION":14.98339894,"ECCENTRICITY":0.00023219,"INCLINATION":70.0019,"RA_OF_ASC_NODE":246.231,"ARG_OF_PERICENTER":271.9309,"MEAN_ANOMALY":88.1584,"EPHEMERIS_TYPE":0,"CLASSIFICATION_TYPE":"U","NORAD_CAT_ID":63864,"ELEMENT_SET_NO":999,"REV_AT_EPOCH":2512,"BSTAR":0.00069465797,"MEAN_MOTION_DOT":8.207e-5,"MEAN_MOTION_DDOT":0},{"OBJECT_NAME":"STARLINK-33897","OBJECT_ID":"2025-094B","EPOCH":"2025-10-13T07:01:31.112544","MEAN_MOTION":14.99166204,"ECCENTRICITY":0.00024555,"INCLINATION":70.0014,"RA_OF_ASC_NODE":246.1301,"ARG_OF_PERICENTER":268.3799,"MEAN_ANOMALY":91.708,"EPHEMERIS_TYPE":0,"CLASSIFICATION_TYPE":"U","NORAD_CAT_ID":63865,"ELEMENT_SET_NO":999,"REV_AT_EPOCH":2534,"BSTAR":0.001202613,"MEAN_MOTION_DOT":0.000146,"MEAN_MOTION_DDOT":0},{"OBJECT_NAME":"STARLINK-34022","OBJECT_ID":"2025-094C","EPOCH":"2025-10-13T07:16:40.596096","MEAN_MOTION":14.98341321,"ECCENTRICITY":0.00027023,"INCLINATION":70.0009,"RA_OF_ASC_NODE":246.1642,"ARG_OF_PERICENTER":268.3947,"MEAN_ANOMALY":91.6903,"EPHEMERIS_TYPE":0,"CLASSIFICATION_TYPE":"U","NORAD_CAT_ID":63866,"ELEMENT_SET_NO":999,"REV_AT_EPOCH":2512,"BSTAR":0.00064193126,"MEAN_MOTION_DOT":7.577e-5,"MEAN_MOTION_DDOT":0},{"OBJECT_NAME":"STARLINK-33979","OBJECT_ID":"2025-094D","EPOCH":"2025-10-13T05:28:18.436224","MEAN_MOTION":14.98598625,"ECCENTRICITY":0.00029749,"INCLINATION":70.0005,"RA_OF_ASC_NODE":246.3087,"ARG_OF_PERICENTER":269.3997,"MEAN_ANOMALY":90.6821,"EPHEMERIS_TYPE":0,"CLASSIFICATION_TYPE":"U","NORAD_CAT_ID":63867,"ELEMENT_SET_NO":999,"REV_AT_EPOCH":2511,"BSTAR":-0.020081174,"MEAN_MOTION_DOT":-0.00233514,"MEAN_MOTION_DDOT":0},{"OBJECT_NAME":"STARLINK-34007","OBJECT_ID":"2025-094E","EPOCH":"2025-10-13T07:34:32.195424","MEAN_MOTION":14.98922723,"ECCENTRICITY":0.00026584,"INCLINATION":70.0014,"RA_OF_ASC_NODE":246.2127,"ARG_OF_PERICENTER":295.886,"MEAN_ANOMALY":64.2025,"EPHEMERIS_TYPE":0,"CLASSIFICATION_TYPE":"U","NORAD_CAT_ID":63868,"ELEMENT_SET_NO":999,"REV_AT_EPOCH":2512,"BSTAR":-0.010116405,"MEAN_MOTION_DOT":-0.00120584,"MEAN_MOTION_DDOT":0},{"OBJECT_NAME":"STARLINK-34006","OBJECT_ID":"2025-094F","EPOCH":"2025-10-13T08:00:03.000384","MEAN_MOTION":14.98302128,"ECCENTRICITY":0.00031036,"INCLINATION":70.0004,"RA_OF_ASC_NODE":245.9133,"ARG_OF_PERICENTER":276.4165,"MEAN_ANOMALY":43.6694,"EPHEMERIS_TYPE":0,"CLASSIFICATION_TYPE":"U","NORAD_CAT_ID":63869,"ELEMENT_SET_NO":999,"REV_AT_EPOCH":581,"BSTAR":0.0037083507,"MEAN_MOTION_DOT":0.00044404,"MEAN_MOTION_DDOT":0},{"OBJECT_NAME":"STARLINK-33986","OBJECT_ID":"2025-094G","EPOCH":"2025-10-13T06:46:37.447968","MEAN_MOTION":14.98352744,"ECCENTRICITY":0.00028852,"INCLINATION":70.0016,"RA_OF_ASC_NODE":246.0888,"ARG_OF_PERICENTER":275.5742,"MEAN_ANOMALY":84.5088,"EPHEMERIS_TYPE":0,"CLASSIFICATION_TYPE":"U","NORAD_CAT_ID":63870,"ELEMENT_SET_NO":999,"REV_AT_EPOCH":2512,"BSTAR":0.00087878856,"MEAN_MOTION_DOT":0.00010414,"MEAN_MOTION_DDOT":0},{"OBJECT_NAME":"STARLINK-34013","OBJECT_ID":"2025-094H","EPOCH":"2025-10-13T06:28:37.416000","MEAN_MOTION":14.99150678,"ECCENTRICITY":0.00023054,"INCLINATION":70.0011,"RA_OF_ASC_NODE":246.0538,"ARG_OF_PERICENTER":271.1266,"MEAN_ANOMALY":88.9629,"EPHEMERIS_TYPE":0,"CLASSIFICATION_TYPE":"U","NORAD_CAT_ID":63871,"ELEMENT_SET_NO":999,"REV_AT_EPOCH":2512,"BSTAR":0.00082353831,"MEAN_MOTION_DOT":9.958e-5,"MEAN_MOTION_DDOT":0},{"OBJECT_NAME":"STARLINK-34059","OBJECT_ID":"2025-094J","EPOCH":"2025-10-13T07:28:50.077344","MEAN_MOTION":14.99197178,"ECCENTRICITY":0.0002808,"INCLINATION":70.0013,"RA_OF_ASC_NODE":246.1994,"ARG_OF_PERICENTER":272.7345,"MEAN_ANOMALY":87.3493,"EPHEMERIS_TYPE":0,"CLASSIFICATION_TYPE":"U","NORAD_CAT_ID":63872,"ELEMENT_SET_NO":999,"REV_AT_EPOCH":2512,"BSTAR":0.0021754807,"MEAN_MOTION_DOT":0.00026554,"MEAN_MOTION_DDOT":0},{"OBJECT_NAME":"STARLINK-33987","OBJECT_ID":"2025-094K","EPOCH":"2025-10-13T06:40:22.306080","MEAN_MOTION":14.98343313,"ECCENTRICITY":0.00026331,"INCLINATION":70.0012,"RA_OF_ASC_NODE":246.0808,"ARG_OF_PERICENTER":278.5095,"MEAN_ANOMALY":81.5766,"EPHEMERIS_TYPE":0,"CLASSIFICATION_TYPE":"U","NORAD_CAT_ID":63873,"ELEMENT_SET_NO":999,"REV_AT_EPOCH":2512,"BSTAR":0.00035835252,"MEAN_MOTION_DOT":4.187e-5,"MEAN_MOTION_DDOT":0},{"OBJECT_NAME":"STARLINK-34052","OBJECT_ID":"2025-094L","EPOCH":"2025-10-13T07:22:26.966784","MEAN_MOTION":14.98345193,"ECCENTRICITY":0.00028988,"INCLINATION":70.0006,"RA_OF_ASC_NODE":246.1808,"ARG_OF_PERICENTER":272.1783,"MEAN_ANOMALY":87.9044,"EPHEMERIS_TYPE":0,"CLASSIFICATION_TYPE":"U","NORAD_CAT_ID":63874,"ELEMENT_SET_NO":999,"REV_AT_EPOCH":2512,"BSTAR":0.00041007389,"MEAN_MOTION_DOT":4.805e-5,"MEAN_MOTION_DDOT":0},{"OBJECT_NAME":"STARLINK-34023","OBJECT_ID":"2025-094M","EPOCH":"2025-10-13T06:34:21.405504","MEAN_MOTION":14.98365046,"ECCENTRICITY":0.00026079,"INCLINATION":70.0019,"RA_OF_ASC_NODE":246.0637,"ARG_OF_PERICENTER":261.8925,"MEAN_ANOMALY":98.1939,"EPHEMERIS_TYPE":0,"CLASSIFICATION_TYPE":"U","NORAD_CAT_ID":63875,"ELEMENT_SET_NO":999,"REV_AT_EPOCH":2512,"BSTAR":-0.0044295961,"MEAN_MOTION_DOT":-0.00052598,"MEAN_MOTION_DDOT":0}]
